[{"OBJECT_NAME":"STARLINK-32034","OBJECT_ID":"2024-132V","EPOCH":"2026-03-09T21:56:59.161632","MEAN_MOTION":15.30203672,"ECCENTRICITY":0.00012496,"INCLINATION":53.1605,"RA_OF_ASC_NODE":51.4684,"ARG_OF_PERICENTER":91.7167,"MEAN_ANOMALY":268.3977,"EPHEMERIS_TYPE":0,"CLASSIFICATION_TYPE":"U","NORAD_CAT_ID":60297,"ELEMENT_SET_NO":999,"REV_AT_EPOCH":9159,"BSTAR":2.8223828e-5,"MEAN_MOTION_DOT":4.77e-6,"MEAN_MOTION_DDOT":0},{"OBJECT_NAME":"PHISAT 2","OBJECT_ID":"2024-149C","EPOCH":"2026-03-09T18:55:12.732384","MEAN_MOTION":15.29548632,"ECCENTRICITY":0.00011753,"INCLINATION":97.3806,"RA_OF_ASC_NODE":148.6498,"ARG_OF_PERICENTER":168.623,"MEAN_ANOMALY":191.5037,"EPHEMERIS_TYPE":0,"CLASSIFICATION_TYPE":"U","NORAD_CAT_ID":60470,"ELEMENT_SET_NO":999,"REV_AT_EPOCH":8679,"BSTAR":0.00031420974,"MEAN_MOTION_DOT":8.925e-5,"MEAN_MOTION_DDOT":0}]
